"83019D" "Sol/Earth"
{
	Mesh "satellite.3ds"
	Radius 0.005

	EllipticalOrbit
	{
		Period          0.5086474
		SemiMajorAxis  26922.132946665875
		Eccentricity    0.7195215
		Inclination     62.3741
		AscendingNode   239.8756
		ArgOfPericenter 270.9276
		MeanAnomaly     15.17
		Epoch           2452342.86311887
	}
        Albedo              10
}

"83020A" "Sol/Earth"
{
	Mesh "satellite.3ds"
	Radius 0.005

	EllipticalOrbit
	{
		Period          4.1182528
		SemiMajorAxis  108552.60595371576
		Eccentricity    0.8479615
		Inclination     18.672
		AscendingNode   305.0275
		ArgOfPericenter 52.8514
		MeanAnomaly     357.7357
		Epoch           2452347.04166667
	}
        Albedo              10
}

"81088G" "Sol/Earth"
{
	Mesh "satellite.3ds"
	Radius 0.005

	EllipticalOrbit
	{
		Period          0.18240334
		SemiMajorAxis  13588.977550619218
		Eccentricity    0.4130658
		Inclination     64.0227
		AscendingNode   331.1536
		ArgOfPericenter 258.1563
		MeanAnomaly     53.8808
		Epoch           2452345.2230481
	}
        Albedo              10
}

"65108L" "Sol/Earth"
{
	Mesh "satellite.3ds"
	Radius 0.005

	EllipticalOrbit
	{
		Period          0.362143
		SemiMajorAxis  21466.02643981662
		Eccentricity    0.6768016
		Inclination     26.1616
		AscendingNode   149.9902
		ArgOfPericenter 255.4823
		MeanAnomaly     25.723
		Epoch           2452345.61889863
	}
        Albedo              10
}

"81088H" "Sol/Earth"
{
	Mesh "satellite.3ds"
	Radius 0.005

	EllipticalOrbit
	{
		Period          0.18396598
		SemiMajorAxis  13666.477871974368
		Eccentricity    0.4062477
		Inclination     64.0101
		AscendingNode   89.8557
		ArgOfPericenter 259.5377
		MeanAnomaly     53.4505
		Epoch           2452345.34959438
	}
        Albedo              10
}

"81088J" "Sol/Earth"
{
	Mesh "satellite.3ds"
	Radius 0.005

	EllipticalOrbit
	{
		Period          0.17701858
		SemiMajorAxis  13320.20253608151
		Eccentricity    0.4572751
		Inclination     63.5143
		AscendingNode   21.4665
		ArgOfPericenter 243.4014
		MeanAnomaly     63.1827
		Epoch           2452345.09773477
	}
        Albedo              10
}

"81088K" "Sol/Earth"
{
	Mesh "satellite.3ds"
	Radius 0.005

	EllipticalOrbit
	{
		Period          0.18416594
		SemiMajorAxis  13676.379108708585
		Eccentricity    0.4169844
		Inclination     63.9107
		AscendingNode   93.8234
		ArgOfPericenter 250.7316
		MeanAnomaly     60.5206
		Epoch           2452344.68923557
	}
        Albedo              10
}

"81088L" "Sol/Earth"
{
	Mesh "satellite.3ds"
	Radius 0.005

	EllipticalOrbit
	{
		Period          0.16907749
		SemiMajorAxis  12918.798056903901
		Eccentricity    0.4082882
		Inclination     63.9992
		AscendingNode   109.2145
		ArgOfPericenter 293.8971
		MeanAnomaly     29.0129
		Epoch           2452345.31063837
	}
        Albedo              10
}

"65108M" "Sol/Earth"
{
	Mesh "satellite.3ds"
	Radius 0.005

	EllipticalOrbit
	{
		Period          0.24669184
		SemiMajorAxis  16618.868156839402
		Eccentricity    0.5998317
		Inclination     26.6152
		AscendingNode   257.8002
		ArgOfPericenter 168.4117
		MeanAnomaly     216.417
		Epoch           2452346.74981591
	}
        Albedo              10
}

"65108N" "Sol/Earth"
{
	Mesh "satellite.3ds"
	Radius 0.005

	EllipticalOrbit
	{
		Period          0.3606969
		SemiMajorAxis  21408.8433656741
		Eccentricity    0.6743857
		Inclination     26.3729
		AscendingNode   148.0429
		ArgOfPericenter 235.8725
		MeanAnomaly     41.5232
		Epoch           2452326.61223679
	}
        Albedo              10
}

"79058J" "Sol/Earth"
{
	Mesh "satellite.3ds"
	Radius 0.005

	EllipticalOrbit
	{
		Period          0.50023186
		SemiMajorAxis  26624.35869823434
		Eccentricity    0.6254686
		Inclination     67.5935
		AscendingNode   107.3279
		ArgOfPericenter 107.523
		MeanAnomaly     326.4286
		Epoch           2452344.43224205
	}
        Albedo              10
}

"81071F" "Sol/Earth"
{
	Mesh "satellite.3ds"
	Radius 0.005

	EllipticalOrbit
	{
		Period          0.5047789
		SemiMajorAxis  26785.457157454573
		Eccentricity    0.683331
		Inclination     66.1891
		AscendingNode   337.7494
		ArgOfPericenter 181.2813
		MeanAnomaly     175.2227
		Epoch           2452345.15913852
	}
        Albedo              10
}

"83026C" "Sol/Earth"
{
	Mesh "satellite.3ds"
	Radius 0.005

	EllipticalOrbit
	{
		Period          0.7566775
		SemiMajorAxis  35083.706737647444
		Eccentricity    0.1850666
		Inclination     5.9626
		AscendingNode   349.8166
		ArgOfPericenter 349.5183
		MeanAnomaly     7.0611
		Epoch           2452342.11511561
	}
        Albedo              10
}

"TDRS 1 IUS 1" "Sol/Earth"
{
	Mesh "satellite.3ds"
	Radius 0.005

	EllipticalOrbit
	{
		Period          0.3191249
		SemiMajorAxis  19730.528715157998
		Eccentricity    0.6627565
		Inclination     26.0299
		AscendingNode   340.1648
		ArgOfPericenter 184.0677
		MeanAnomaly     165.1645
		Epoch           2452345.11785059
	}
        Albedo              10
}

"80057F" "Sol/Earth"
{
	Mesh "satellite.3ds"
	Radius 0.005

	EllipticalOrbit
	{
		Period          0.49683866
		SemiMajorAxis  26503.82219542504
		Eccentricity    0.648318
		Inclination     67.1033
		AscendingNode   322.7077
		ArgOfPericenter 169.9393
		MeanAnomaly     215.0982
		Epoch           2452342.53735489
	}
        Albedo              10
}

"83041C" "Sol/Earth"
{
	Mesh "satellite.3ds"
	Radius 0.005

	EllipticalOrbit
	{
		Period          1.1856624
		SemiMajorAxis  47330.26663507149
		Eccentricity    0.1641913
		Inclination     17.1799
		AscendingNode   29.5937
		ArgOfPericenter 278.1276
		MeanAnomaly     63.6206
		Epoch           2452341.88523411
	}
        Albedo              10
}

"Oscar 10" "Sol/Earth"
{
	Mesh "satellite.3ds"
	Radius 0.005

	EllipticalOrbit
	{
		Period          0.48573565
		SemiMajorAxis  26107.477419190374
		Eccentricity    0.6090179
		Inclination     25.6838
		AscendingNode   206.6663
		ArgOfPericenter 259.1737
		MeanAnomaly     30.8658
		Epoch           2452342.69715895
	}
        Albedo              10
}

"81088M" "Sol/Earth"
{
	Mesh "satellite.3ds"
	Radius 0.005

	EllipticalOrbit
	{
		Period          0.16169521
		SemiMajorAxis  12539.966096787717
		Eccentricity    0.4494035
		Inclination     62.8324
		AscendingNode   343.2722
		ArgOfPericenter 48.7187
		MeanAnomaly     342.2092
		Epoch           2452345.15407207
	}
        Albedo              10
}

"Anik C2 PAM-D" "Sol/Earth"
{
	Mesh "satellite.3ds"
	Radius 0.005

	EllipticalOrbit
	{
		Period          0.4000244
		SemiMajorAxis  22938.019655561537
		Eccentricity    0.7068382
		Inclination     23.306
		AscendingNode   43.6564
		ArgOfPericenter 114.8026
		MeanAnomaly     330.9548
		Epoch           2452345.26335321
	}
        Albedo              10
}

"Palapa B1 PAMD" "Sol/Earth"
{
	Mesh "satellite.3ds"
	Radius 0.005

	EllipticalOrbit
	{
		Period          0.41008183
		SemiMajorAxis  23320.898343626824
		Eccentricity    0.7145759
		Inclination     25.1709
		AscendingNode   185.7683
		ArgOfPericenter 76.2808
		MeanAnomaly     348.2956
		Epoch           2452344.74740932
	}
        Albedo              10
}

"Cosmos 1481" "Sol/Earth"
{
	Mesh "satellite.3ds"
	Radius 0.005

	EllipticalOrbit
	{
		Period          0.4911819
		SemiMajorAxis  26302.265932750313
		Eccentricity    0.7162206
		Inclination     65.2855
		AscendingNode   190.0775
		ArgOfPericenter 161.8637
		MeanAnomaly     250.9128
		Epoch           2452344.91193343
	}
        Albedo              10
}

"GPS 8 Star" "Sol/Earth"
{
	Mesh "satellite.3ds"
	Radius 0.005

	EllipticalOrbit
	{
		Period          0.25851417
		SemiMajorAxis  17145.671008287394
		Eccentricity    0.5261424
		Inclination     64.7887
		AscendingNode   6.7072
		ArgOfPericenter 56.2241
		MeanAnomaly     343.4188
		Epoch           2452345.40017303
	}
        Albedo              10
}

"83070D" "Sol/Earth"
{
	Mesh "satellite.3ds"
	Radius 0.005

	EllipticalOrbit
	{
		Period          0.4916466
		SemiMajorAxis  26318.851984764908
		Eccentricity    0.7147933
		Inclination     65.388
		AscendingNode   213.0439
		ArgOfPericenter 162.4158
		MeanAnomaly     248.8114
		Epoch           2452344.52829178
	}
        Albedo              10
}

"Cosmos 1481 Ul" "Sol/Earth"
{
	Mesh "satellite.3ds"
	Radius 0.005

	EllipticalOrbit
	{
		Period          0.49224523
		SemiMajorAxis  26340.211910851598
		Eccentricity    0.714003
		Inclination     65.4172
		AscendingNode   193.053
		ArgOfPericenter 159.9745
		MeanAnomaly     256.6848
		Epoch           2452344.40172351
	}
        Albedo              10
}

"Glonass Ulg G" "Sol/Earth"
{
	Mesh "satellite.3ds"
	Radius 0.005

	EllipticalOrbit
	{
		Period          0.21773383
		SemiMajorAxis  15291.45685405099
		Eccentricity    0.5577024
		Inclination     51.9153
		AscendingNode   236.5177
		ArgOfPericenter 9.4806
		MeanAnomaly     357.8135
		Epoch           2452345.14241359
	}
        Albedo              10
}

"Glonass Ulg H" "Sol/Earth"
{
	Mesh "satellite.3ds"
	Radius 0.005

	EllipticalOrbit
	{
		Period          0.21370916
		SemiMajorAxis  15102.436365816064
		Eccentricity    0.5525244
		Inclination     52.1024
		AscendingNode   189.8644
		ArgOfPericenter 13.0641
		MeanAnomaly     356.8925
		Epoch           2452344.84431781
	}
        Albedo              10
}

"Insat 1B PAM" "Sol/Earth"
{
	Mesh "satellite.3ds"
	Radius 0.005

	EllipticalOrbit
	{
		Period          0.3236979
		SemiMajorAxis  19918.570725146674
		Eccentricity    0.6676449
		Inclination     24.262
		AscendingNode   126.5418
		ArgOfPericenter 332.5233
		MeanAnomaly     3.6344
		Epoch           2452345.34031245
	}
        Albedo              10
}

